{"type":"FeatureCollection","features":[{"type":"Feature","id":"relation/15421166","properties":{"timestamp":"2026-09-29T21:05:15Z","version":33,"changeset":189747703,"user":"Dmesa","uid":23567039,"colour":"#9A336A","from":"Pantai Matahari Terbit (Sanur)","name":"Koridor 3 Matahari Terbit → Terminal Ubung","opening_hours":"Mo-Su 04:30-18:50","operator":"Teman Bus","public_transport:version":"2","ref":"K3B","route":"bus","to":"Terminal Ubung","type":"route","wikidata":"Q109355073","wikipedia":"id:Trans Metro Dewata","id":"relation/15421166","_created":false,"_user":"Dmesa","_timestamp":"2026-09-29T21:05:15Z","_version":33,"_osmId":"relation/15421166"},"geometry":{"type":"MultiLineString","coordinates":[[[115.2357228,-8.6703537],[115.2357057,-8.6702706],[115.2357046,-8.6701573],[115.235697,-8.670028],[115.2356936,-8.6698974],[115.2356909,-8.6696747],[115.2356926,-8.6694539],[115.2356949,-8.6693497],[115.2346255,-8.6693173],[115.2340807,-8.6693],[115.2337832,-8.6692928],[115.2335701,-8.6692871],[115.2323539,-8.6692469],[115.2323099,-8.6702942],[115.232255,-8.6702905],[115.2319666,-8.670273],[115.2312103,-8.6702448],[115.2310682,-8.6702399],[115.2307071,-8.6702267],[115.2303347,-8.6702204],[115.2299713,-8.6702033],[115.2292999,-8.6701852],[115.2290781,-8.6701792],[115.2290294,-8.6701779],[115.2289538,-8.6701759],[115.228494,-8.6701444],[115.2284402,-8.6701407],[115.2284189,-8.6704027],[115.2283975,-8.6708636],[115.2283846,-8.6710004],[115.22837,-8.671212],[115.2283565,-8.6714403],[115.2283221,-8.6718088],[115.2283004,-8.6720559],[115.2282843,-8.6722803],[115.2282558,-8.6729159],[115.2280618,-8.6729082],[115.2276865,-8.6728891],[115.2273331,-8.6728718],[115.2271737,-8.6728641],[115.2270029,-8.6728607],[115.2269771,-8.6728601],[115.2268596,-8.672858],[115.2267303,-8.6728554],[115.2265871,-8.6728526],[115.2263923,-8.6728471],[115.2263745,-8.6728469],[115.2261165,-8.6728305],[115.226015,-8.672824],[115.2258779,-8.6728153],[115.2255972,-8.6727974],[115.2255329,-8.6727933],[115.2253108,-8.6727791],[115.2251187,-8.6727669],[115.225085,-8.6727648],[115.2250088,-8.6727595],[115.2247392,-8.6727362],[115.2245498,-8.6727205],[115.224381,-8.6727107],[115.2243143,-8.672708],[115.2242554,-8.6727049],[115.2239991,-8.6726913],[115.223736,-8.6726796],[115.2235251,-8.6726734],[115.2234337,-8.6726674],[115.2233761,-8.6726668],[115.2230256,-8.6726576],[115.222883,-8.6726522],[115.2228396,-8.6726547],[115.2227569,-8.6726515],[115.222511,-8.6726384],[115.2223052,-8.6726327],[115.2219993,-8.6726155],[115.2219003,-8.672606],[115.221791,-8.6725953],[115.2217128,-8.6725728],[115.2216574,-8.6725366],[115.2216403,-8.6725138],[115.2216194,-8.672486],[115.2216053,-8.6724495],[115.2215993,-8.6724018],[115.2216009,-8.6723553],[115.2216037,-8.6722685],[115.2216045,-8.6721879],[115.2216054,-8.6720411],[115.2216087,-8.6719509],[115.2216154,-8.671764],[115.2216363,-8.6714947],[115.2216452,-8.6713835],[115.2216687,-8.6709982],[115.2216789,-8.6706793],[115.2216904,-8.670507],[115.2216973,-8.6704416],[115.2217069,-8.6703626],[115.2217101,-8.6703154],[115.2217247,-8.6702209],[115.2217282,-8.6701649],[115.2216737,-8.6700631],[115.2216134,-8.6699851],[115.2215449,-8.6699332],[115.2214067,-8.669863],[115.2213827,-8.6698616],[115.2211125,-8.6698122],[115.2206968,-8.6697956],[115.2194803,-8.669786],[115.2188374,-8.6697881],[115.2184171,-8.6697907],[115.2182482,-8.6697965],[115.218118,-8.6698043],[115.2180335,-8.6698004],[115.2179353,-8.6697635],[115.2178799,-8.6697426],[115.2174714,-8.6696982],[115.2174415,-8.6696959],[115.2174041,-8.6696931],[115.217242,-8.669674],[115.2171608,-8.6696662],[115.2169102,-8.669642],[115.216825,-8.6696338],[115.2167743,-8.6696289],[115.2164594,-8.6695943],[115.2162877,-8.6695741],[115.2161801,-8.6695618],[115.2161446,-8.6695574],[115.2161312,-8.6695566],[115.2160835,-8.6695507],[115.2160639,-8.6695278],[115.2160162,-8.669522],[115.2159975,-8.6695182],[115.2158962,-8.669503],[115.2156631,-8.669467],[115.2156018,-8.6694572],[115.2154994,-8.6694377],[115.2155003,-8.6693414],[115.2155041,-8.6688655],[115.2154955,-8.6685445],[115.2154988,-8.6683183],[115.2154902,-8.6680805],[115.2154896,-8.6680426],[115.2154878,-8.6679137],[115.215478,-8.6676601],[115.2154722,-8.6675178],[115.2154717,-8.6675022],[115.2154711,-8.6673851],[115.2154697,-8.6672816],[115.2154719,-8.6671964],[115.2154733,-8.6670044],[115.215475,-8.6667664],[115.2154761,-8.666674],[115.2154786,-8.666498],[115.2154779,-8.6663986],[115.2154781,-8.666177],[115.2154774,-8.6661454],[115.2154769,-8.6660208],[115.2154745,-8.6658912],[115.2154744,-8.6658544],[115.21547,-8.6656482],[115.215467,-8.6654861],[115.2154618,-8.6651991],[115.2154615,-8.6649892],[115.215459,-8.664927],[115.2154563,-8.6647891],[115.2154501,-8.6646975],[115.2154394,-8.6646051],[115.2154289,-8.6645317],[115.2153902,-8.6642477],[115.2153855,-8.6642145],[115.2153802,-8.6641776],[115.2153262,-8.6638293],[115.2153072,-8.6636724],[115.2152808,-8.663478],[115.2152254,-8.6631211],[115.2152126,-8.6630389],[115.215189,-8.6628928],[115.2151556,-8.6626363],[115.2150927,-8.6621607],[115.2150855,-8.6620976],[115.2150741,-8.6619904],[115.2150608,-8.6616216],[115.2150523,-8.6614696],[115.2150536,-8.6613163],[115.2150525,-8.6612758],[115.2150438,-8.6609582],[115.2150412,-8.6608634],[115.2150393,-8.6607951],[115.2150359,-8.6606997],[115.2150319,-8.6606002],[115.2150043,-8.6603032],[115.2149762,-8.6600222],[115.2149541,-8.6598187],[115.2149447,-8.6596993],[115.2149367,-8.659582],[115.214925,-8.6593941],[115.2149159,-8.6592353],[115.2149139,-8.6591891],[115.2149112,-8.6591499],[115.214878,-8.659068],[115.2148482,-8.6589947],[115.2148167,-8.6589171],[115.2147824,-8.6588628],[115.2147387,-8.6588226],[115.214689,-8.6587944],[115.2146229,-8.6587735],[115.2145548,-8.6587569],[115.2145169,-8.6587517],[115.2144787,-8.6587461],[115.2140415,-8.6586851],[115.2133293,-8.6586109],[115.213273,-8.6586082],[115.2132224,-8.6586052],[115.2129297,-8.6585906],[115.2128841,-8.6585889],[115.2126688,-8.6585744],[115.2122353,-8.6585452],[115.2115634,-8.6584998],[115.211421,-8.6584902],[115.2112173,-8.6584748],[115.2106992,-8.6584357],[115.2104994,-8.6584206],[115.2103401,-8.6584105],[115.2101777,-8.6584001],[115.2101434,-8.6583981],[115.2099817,-8.6583301],[115.209941,-8.6582927],[115.2099228,-8.6582517],[115.2098967,-8.6581741],[115.2098763,-8.6581],[115.2098815,-8.6580763],[115.2099776,-8.6576398],[115.2100261,-8.6574083],[115.2101451,-8.6566133],[115.210148,-8.6565946],[115.2101786,-8.6564024],[115.2101813,-8.6563887],[115.2101875,-8.6563571],[115.2102353,-8.6560553],[115.2103926,-8.6552736],[115.2104075,-8.6552054],[115.2104487,-8.6549769],[115.2104659,-8.6548811],[115.2103561,-8.6548508],[115.2100921,-8.6547821],[115.2098438,-8.6547295],[115.2095829,-8.6546868],[115.2090565,-8.6545883],[115.2089635,-8.6545695],[115.2087237,-8.6545228],[115.2087086,-8.65452],[115.2085428,-8.65449],[115.2085496,-8.6543921],[115.208556,-8.6543275],[115.2085657,-8.654229],[115.2085878,-8.6539649],[115.2085951,-8.6538286],[115.2086023,-8.6536953],[115.2086172,-8.6534944],[115.2086205,-8.6533924],[115.2086368,-8.6532055],[115.2086556,-8.6530298],[115.2086707,-8.6528537],[115.2086745,-8.6528159],[115.2087596,-8.6519651],[115.2087615,-8.6519431],[115.208791,-8.6515979],[115.2088187,-8.6512426],[115.2088344,-8.6510457],[115.2088832,-8.6506021],[115.2088921,-8.6505007],[115.2089046,-8.6503728],[115.2089202,-8.6502055],[115.208948,-8.649916],[115.2089709,-8.6496308],[115.2089968,-8.6493046],[115.2090083,-8.6491457],[115.2090277,-8.6489222],[115.2090379,-8.6488209],[115.2090512,-8.6487433],[115.2090668,-8.6486865],[115.2091223,-8.6484847],[115.2091808,-8.6482623],[115.2092537,-8.6479233],[115.2092656,-8.647844],[115.2092718,-8.6477463],[115.209278,-8.6475203],[115.2092819,-8.6472981],[115.209284,-8.6472337],[115.209278,-8.6471746],[115.2092745,-8.6470071],[115.2092759,-8.6468308],[115.2092739,-8.6464974],[115.2092745,-8.6464609],[115.2092821,-8.6461346],[115.2092834,-8.6458828],[115.2092879,-8.6455394],[115.2092892,-8.6454107],[115.20929,-8.6453047],[115.2092921,-8.645013],[115.2092932,-8.6448588],[115.2092941,-8.6447399],[115.2092945,-8.6446815],[115.2092947,-8.6446451],[115.2092951,-8.6446018],[115.209296,-8.6444689],[115.2092964,-8.6444164],[115.2092967,-8.6443793],[115.2093007,-8.6438238],[115.2093014,-8.6437322],[115.2093017,-8.643687],[115.2093025,-8.6435731],[115.2092939,-8.6432464],[115.2092779,-8.6429977],[115.2092609,-8.6427714],[115.2092497,-8.6426354],[115.2092417,-8.6425336],[115.209237,-8.6424773],[115.2091773,-8.6420789],[115.2091565,-8.6419582],[115.2091416,-8.641881],[115.2091129,-8.6416977],[115.209097,-8.641567],[115.2090801,-8.6415018],[115.2090734,-8.6414741],[115.209061,-8.6414251],[115.2090311,-8.6413218],[115.2090036,-8.6412522],[115.208952,-8.6411706],[115.2087723,-8.6409784],[115.2086462,-8.6408517],[115.2085037,-8.6407041],[115.208317,-8.6405375],[115.2081973,-8.6404234],[115.2079933,-8.6401989],[115.2079394,-8.6401232],[115.2079066,-8.6400514],[115.2078865,-8.6400072],[115.2078216,-8.6398477],[115.2077901,-8.6397635],[115.2076264,-8.639231],[115.2076079,-8.6391773],[115.2075315,-8.6389496],[115.2072776,-8.6389756],[115.2067457,-8.63903],[115.2064669,-8.6390585],[115.2062737,-8.6390763],[115.2062177,-8.6390825],[115.2060659,-8.6390933],[115.2060314,-8.6390957],[115.205174,-8.6391633],[115.204914,-8.6391825],[115.2046726,-8.6391993],[115.2044658,-8.6392033],[115.2041616,-8.6392049],[115.2039724,-8.6391916],[115.2038068,-8.6391732],[115.2036784,-8.6391582],[115.2033776,-8.639098],[115.2028318,-8.638936],[115.2026734,-8.6388873],[115.2024989,-8.6388338],[115.2023156,-8.6387713],[115.201987,-8.6386592],[115.2016292,-8.6385372],[115.2010499,-8.6383396],[115.2003738,-8.638109],[115.1998356,-8.6379254],[115.1995856,-8.6378401],[115.199215,-8.6377137],[115.1985618,-8.6374909],[115.1980329,-8.6373105],[115.1976747,-8.6371883],[115.1972863,-8.6370559],[115.1971537,-8.6370106],[115.1970353,-8.6369702],[115.1968127,-8.6368943],[115.196754,-8.6368743],[115.1966811,-8.6368451],[115.1966204,-8.6368237],[115.1964137,-8.6367424],[115.1962866,-8.6366974],[115.195936,-8.6365908],[115.1958608,-8.6365624],[115.1957469,-8.6365253],[115.1956932,-8.6365041],[115.1955189,-8.6364471],[115.1953495,-8.6363922],[115.1951646,-8.6363239],[115.1949364,-8.6362691],[115.194699,-8.6362313],[115.1945642,-8.6362236],[115.1944416,-8.6362206],[115.1943765,-8.6362206],[115.1941536,-8.6362306],[115.1936098,-8.636246],[115.1933385,-8.6362627],[115.1932933,-8.6362686],[115.193073,-8.6362833],[115.1930167,-8.6362849],[115.1928235,-8.6362972],[115.1924225,-8.6363191],[115.1915788,-8.6363667],[115.1913439,-8.6363795],[115.1912599,-8.6363854],[115.1908657,-8.6363995],[115.1908341,-8.6364012],[115.1897757,-8.6364502],[115.1889883,-8.6364919],[115.1883648,-8.6365165],[115.1880222,-8.63653],[115.1879664,-8.636534],[115.1874788,-8.6365619],[115.1873545,-8.6365668],[115.1870779,-8.6366142],[115.1860625,-8.6366805],[115.1857878,-8.6366955],[115.1856809,-8.6367018],[115.1855732,-8.6367105],[115.1853747,-8.6367224],[115.1851767,-8.6367343],[115.1849055,-8.6367479],[115.1848665,-8.6367499],[115.1838396,-8.6367864],[115.1832202,-8.6368084],[115.1830914,-8.6367748],[115.1826215,-8.6367815],[115.1820979,-8.6368057],[115.1818836,-8.6368157],[115.1818193,-8.6368203],[115.1817413,-8.6368223],[115.1812865,-8.6368433],[115.1810906,-8.6368558],[115.1807347,-8.6368727],[115.180395,-8.6368918],[115.1801885,-8.6368989],[115.1800886,-8.6369023],[115.1799124,-8.6369082],[115.1791991,-8.6369492],[115.1789088,-8.6369589],[115.1787054,-8.6369657],[115.1784852,-8.6369731],[115.1784944,-8.6370722],[115.1785116,-8.6377571],[115.1777968,-8.6378042],[115.1774745,-8.6378246],[115.1772647,-8.6378322],[115.176457,-8.6378599],[115.1760393,-8.6378824],[115.175541,-8.6379123],[115.1752903,-8.6379195],[115.1750484,-8.6379411],[115.1748759,-8.6379593],[115.1748289,-8.6379779],[115.1747947,-8.6380071],[115.1747806,-8.6380534],[115.1747771,-8.6381016],[115.1747994,-8.6387151],[115.1745044,-8.6387217],[115.17419,-8.6387261],[115.1737901,-8.6387318],[115.1739585,-8.6385109],[115.1740712,-8.638362],[115.1741289,-8.6382776],[115.174194,-8.6381679],[115.1742673,-8.6380024],[115.1743113,-8.6378811],[115.174365,-8.6377385],[115.1743921,-8.6376652],[115.1744997,-8.6373847],[115.1745389,-8.6372714]],[[115.2075315,-8.6389496],[115.2074589,-8.6386957],[115.2073956,-8.6384867],[115.2073615,-8.63836],[115.2072785,-8.6380663],[115.2073615,-8.63836],[115.2073956,-8.6384867],[115.2074589,-8.6386957],[115.2075315,-8.6389496]],[[115.2072785,-8.6380663],[115.2072681,-8.6380276],[115.2072435,-8.6379378],[115.2071561,-8.6376295],[115.2070664,-8.6372473],[115.207057,-8.6371996],[115.2070053,-8.6369368],[115.2069703,-8.6366742],[115.2069416,-8.6364489],[115.2069188,-8.6362446],[115.2069145,-8.6362178],[115.2069008,-8.6360821],[115.2068517,-8.6356234],[115.2068436,-8.635547],[115.2068517,-8.6356234],[115.2069008,-8.6360821],[115.2069145,-8.6362178],[115.2069188,-8.6362446],[115.2069416,-8.6364489],[115.2069703,-8.6366742],[115.2070053,-8.6369368],[115.207057,-8.6371996],[115.2070664,-8.6372473],[115.2071561,-8.6376295],[115.2072435,-8.6379378],[115.2072681,-8.6380276],[115.2072785,-8.6380663]],[[115.2067816,-8.6349631],[115.2066791,-8.6349738],[115.2066448,-8.6349774],[115.2065494,-8.6349845],[115.2058645,-8.6350325],[115.2058383,-8.6350566],[115.2058202,-8.6350917],[115.2058091,-8.6352349],[115.2058168,-8.6352788],[115.2058333,-8.6353145],[115.2058927,-8.6353614],[115.2059265,-8.6353731],[115.2062282,-8.6353864],[115.2062785,-8.6353937],[115.2063655,-8.6354124],[115.206426,-8.6354574],[115.2064641,-8.6355349],[115.2065807,-8.6355374],[115.2066305,-8.6355475],[115.2067372,-8.6355472],[115.2068436,-8.635547],[115.2068305,-8.6354277],[115.2068176,-8.6353109],[115.2067982,-8.6351273],[115.2067816,-8.6349631]],[[115.2357788,-8.6704529],[115.2357534,-8.6704445],[115.2357329,-8.6704275],[115.2357226,-8.6704108],[115.2357173,-8.670392],[115.2357174,-8.6703725],[115.2357228,-8.6703537],[115.2357327,-8.6703377],[115.2357465,-8.6703249],[115.2357631,-8.670316],[115.2357816,-8.6703118],[115.2358005,-8.6703124],[115.2358183,-8.6703178],[115.235834,-8.6703275],[115.2358468,-8.6703408],[115.2358556,-8.670357],[115.23586,-8.6703747],[115.2358597,-8.670393],[115.2358546,-8.6704105],[115.2358452,-8.6704263],[115.2358267,-8.6704427],[115.2358037,-8.670452],[115.2357788,-8.6704529]],[[115.2582282,-8.6717487],[115.2582935,-8.6718611],[115.2583587,-8.6719734],[115.258377,-8.6720056],[115.2584029,-8.6720513],[115.2584124,-8.6720684],[115.2584575,-8.6721452],[115.2585849,-8.67237],[115.2586158,-8.6724263],[115.2586633,-8.6725145],[115.2586935,-8.6725682],[115.2589866,-8.6730833],[115.2590349,-8.6731597],[115.2590414,-8.6731704],[115.2591576,-8.6733921],[115.2591851,-8.6734465],[115.2593682,-8.6737719],[115.2594995,-8.6739808],[115.259584,-8.6741293],[115.2596183,-8.6741861],[115.2596524,-8.6742406],[115.2597074,-8.6743427],[115.2597322,-8.6744777],[115.2595804,-8.6745035],[115.2594211,-8.6745197],[115.2593624,-8.67453],[115.2592072,-8.6745535],[115.2590181,-8.674576],[115.2589644,-8.67458],[115.2589172,-8.674582],[115.2587926,-8.6745732],[115.258719,-8.6745847],[115.2585514,-8.6746039],[115.2584213,-8.6746158],[115.2583073,-8.6746277],[115.2581772,-8.674637],[115.2577749,-8.6746384],[115.2576274,-8.6746344],[115.2570494,-8.6746025],[115.255703,-8.6745328],[115.2555032,-8.6745123],[115.2551561,-8.6744862],[115.2549239,-8.6744692],[115.2547395,-8.6744548],[115.2546961,-8.6744513],[115.254327,-8.6744256],[115.2540693,-8.6744028],[115.253893,-8.6743842],[115.2537262,-8.674366],[115.252899,-8.6742519],[115.2522375,-8.6741518],[115.2521481,-8.674132],[115.2520537,-8.6741226],[115.2514418,-8.6740338],[115.2512988,-8.6740056],[115.2511406,-8.6739769],[115.2510969,-8.6739695],[115.2508623,-8.6739382],[115.2505752,-8.6738998],[115.2505349,-8.6738935],[115.2503843,-8.6738707],[115.2503234,-8.6738603],[115.2500904,-8.6738336],[115.2497795,-8.6738059],[115.2496223,-8.6738007],[115.2494546,-8.6737753],[115.2492137,-8.6737673],[115.2490469,-8.6737576],[115.2489529,-8.6737521],[115.2488016,-8.6737557],[115.2487741,-8.6737563],[115.2486484,-8.6737514],[115.2484717,-8.6737416],[115.2480304,-8.673717],[115.2472834,-8.673693],[115.2465701,-8.6736715],[115.24633,-8.6736684],[115.2458048,-8.6736494],[115.2455696,-8.6736408],[115.2454808,-8.6736375],[115.2454072,-8.6736374],[115.2453633,-8.6736387],[115.2452268,-8.673642],[115.2449796,-8.6736393],[115.245028,-8.6736047],[115.2450639,-8.6735575],[115.2450838,-8.6735018],[115.245086,-8.6734428],[115.2450703,-8.6733858],[115.2450468,-8.6733466],[115.2450148,-8.6733138],[115.244976,-8.6732893],[115.2449236,-8.6732725],[115.2448685,-8.6732707],[115.244815,-8.673284],[115.2447673,-8.6733113],[115.2447291,-8.6733506],[115.2447034,-8.6733987],[115.2446926,-8.6734458],[115.2446938,-8.673494],[115.2447069,-8.6735404],[115.244731,-8.6735823],[115.2447589,-8.6736138],[115.244664,-8.6736263],[115.2445226,-8.6736358],[115.2444097,-8.6736403],[115.2443327,-8.6736404],[115.2439814,-8.6736248],[115.243221,-8.6735904],[115.2424794,-8.6735644],[115.2422975,-8.6735563],[115.24175,-8.6735335],[115.2412996,-8.6735126],[115.2411518,-8.6735004],[115.2406945,-8.6734797],[115.2405141,-8.6734715],[115.2404879,-8.6734703],[115.2404123,-8.6734669],[115.2393503,-8.6734151],[115.2391786,-8.6734067],[115.2391454,-8.6734051],[115.238872,-8.6733918],[115.2386623,-8.6733816],[115.2384897,-8.6733786],[115.2383715,-8.6733801],[115.2383423,-8.6733792],[115.2379983,-8.6733692],[115.2379282,-8.6733672],[115.2377922,-8.6733591],[115.2377126,-8.6733544],[115.2376174,-8.6733488],[115.2374593,-8.6733394],[115.2369881,-8.6733114],[115.2369572,-8.6733096],[115.235932,-8.6732632],[115.2355726,-8.6732485],[115.2355756,-8.6731495],[115.2355766,-8.6731383],[115.2355821,-8.6729919],[115.23561,-8.672478],[115.2356315,-8.6720172],[115.2356398,-8.6718408],[115.2356465,-8.6716521],[115.2356642,-8.671049],[115.2356923,-8.67061],[115.2356936,-8.6705298],[115.2357173,-8.670392]],[[115.2449796,-8.6736393],[115.2449377,-8.6736548],[115.2448933,-8.6736607],[115.2448487,-8.6736566],[115.2448261,-8.6736492],[115.2448063,-8.6736426],[115.244782,-8.6736278],[115.2447589,-8.6736138]]]}},{"type":"Feature","id":"relation/15421213","properties":{"timestamp":"2026-09-28T21:45:18Z","version":39,"changeset":189700317,"user":"Dmesa","uid":23567039,"colour":"#9A336A","from":"Terminal Ubung","name":"Koridor 3 Terminal Ubung → Matahari Terbit","opening_hours":"Mo-Su 04:30-18:50","operator":"Teman Bus","public_transport:version":"2","ref":"K3B","route":"bus","to":"Pantai Matahari Terbit (Sanur)","type":"route","wikidata":"Q109355073","wikipedia":"id:Trans Metro Dewata","id":"relation/15421213","_created":false,"_user":"Dmesa","_timestamp":"2026-09-28T21:45:18Z","_version":39,"_osmId":"relation/15421213"},"geometry":{"type":"MultiLineString","coordinates":[[[115.2450703,-8.6733858],[115.2452476,-8.6734836],[115.2454139,-8.6735897],[115.2454808,-8.6736375],[115.2455696,-8.6736408],[115.2458048,-8.6736494],[115.24633,-8.6736684],[115.2465701,-8.6736715],[115.2472834,-8.673693],[115.2480304,-8.673717],[115.2484717,-8.6737416],[115.2486484,-8.6737514],[115.2487741,-8.6737563],[115.2488016,-8.6737557],[115.2489529,-8.6737521],[115.2490469,-8.6737576],[115.2492137,-8.6737673],[115.2494546,-8.6737753],[115.2496223,-8.6738007],[115.2497795,-8.6738059],[115.2500904,-8.6738336],[115.2503234,-8.6738603],[115.2503843,-8.6738707],[115.2505349,-8.6738935],[115.2505752,-8.6738998],[115.2508623,-8.6739382],[115.2510969,-8.6739695],[115.2511406,-8.6739769],[115.2512988,-8.6740056],[115.2514418,-8.6740338],[115.2520537,-8.6741226],[115.2521481,-8.674132],[115.2522375,-8.6741518],[115.252899,-8.6742519],[115.2537262,-8.674366],[115.253893,-8.6743842],[115.2540693,-8.6744028],[115.254327,-8.6744256],[115.2546961,-8.6744513],[115.2547395,-8.6744548],[115.2549239,-8.6744692],[115.2551561,-8.6744862],[115.2555032,-8.6745123],[115.255703,-8.6745328],[115.2570494,-8.6746025],[115.2576274,-8.6746344],[115.2577749,-8.6746384],[115.2581772,-8.674637],[115.2583073,-8.6746277],[115.2584213,-8.6746158],[115.2585514,-8.6746039],[115.258719,-8.6745847],[115.2587926,-8.6745732],[115.2588759,-8.6745184],[115.258898,-8.6745081],[115.2589708,-8.6744854],[115.2590651,-8.6744647],[115.259234,-8.6744355],[115.259405,-8.6744017],[115.2595618,-8.6743706],[115.2595465,-8.6743109],[115.2595358,-8.6742652],[115.259521,-8.6742161],[115.2595022,-8.674177],[115.2594486,-8.6740716],[115.2593373,-8.673876],[115.2591093,-8.6734922],[115.2590771,-8.6734306],[115.2590328,-8.6733464],[115.25889,-8.6731303],[115.2587076,-8.6728578],[115.2585742,-8.6726046],[115.2584948,-8.6724622],[115.2584205,-8.6723294],[115.2583579,-8.672219],[115.2582993,-8.6721219],[115.2582723,-8.6720735],[115.2582461,-8.6720265],[115.2582028,-8.67195],[115.2579546,-8.67151],[115.2577157,-8.6710976],[115.2572939,-8.6703461],[115.257042,-8.6698986],[115.2570047,-8.6698319],[115.2568516,-8.6695642],[115.2566529,-8.6692155],[115.2563751,-8.6687112],[115.2560784,-8.6681368],[115.2557445,-8.6674593],[115.2556895,-8.6673412],[115.2555638,-8.6670414],[115.2554234,-8.6666015],[115.255292,-8.6661369],[115.2551665,-8.6656712],[115.2551165,-8.66546],[115.2549497,-8.6648297],[115.2548901,-8.6646089],[115.2548117,-8.6642655],[115.2548003,-8.6642317],[115.2547187,-8.663903],[115.2546617,-8.6636709],[115.2546516,-8.6636319],[115.254601,-8.6634348],[115.2545523,-8.6632659],[115.2541916,-8.6619286],[115.2541397,-8.6617371],[115.2540781,-8.661493],[115.2538525,-8.6605365]],[[115.2448261,-8.6736492],[115.2448063,-8.6736426],[115.244782,-8.6736278],[115.2447589,-8.6736138],[115.244731,-8.6735823],[115.2447069,-8.6735404],[115.2446938,-8.673494],[115.2446926,-8.6734458],[115.2447034,-8.6733987],[115.2447291,-8.6733506],[115.2447673,-8.6733113],[115.244815,-8.673284],[115.2448685,-8.6732707],[115.2449236,-8.6732725],[115.244976,-8.6732893],[115.2450148,-8.6733138],[115.2450468,-8.6733466],[115.2450703,-8.6733858],[115.245086,-8.6734428],[115.2450838,-8.6735018],[115.2450639,-8.6735575],[115.245028,-8.6736047],[115.2449796,-8.6736393],[115.2449377,-8.6736548],[115.2448933,-8.6736607],[115.2448487,-8.6736566],[115.2448261,-8.6736492]],[[115.2358556,-8.670357],[115.2359397,-8.670372],[115.2360106,-8.6703902],[115.236085,-8.6704346],[115.2364383,-8.6704465],[115.2368494,-8.6704584],[115.2371767,-8.6704707],[115.2377401,-8.6704919],[115.2377761,-8.6704932],[115.2382644,-8.6705018],[115.2384695,-8.6705055],[115.2385783,-8.6705043],[115.2385696,-8.6706718],[115.2385441,-8.6711654],[115.2385325,-8.6717348],[115.2385297,-8.6718834],[115.2385286,-8.6719153],[115.2385207,-8.6721826],[115.2385123,-8.6726575],[115.2384971,-8.6730831],[115.2384918,-8.6732326],[115.2385878,-8.6732371],[115.2389602,-8.6732541],[115.2391499,-8.6732647],[115.2393145,-8.6732737],[115.2393958,-8.6732782],[115.239716,-8.6732957],[115.2398753,-8.6733044],[115.2403317,-8.6733259],[115.2404196,-8.67333],[115.2404922,-8.6733335],[115.2407704,-8.673347],[115.2408277,-8.6733496],[115.2411553,-8.6733646],[115.2413035,-8.6733716],[115.2417737,-8.6733922],[115.2418116,-8.6733955],[115.2419204,-8.6733998],[115.2421473,-8.6734089],[115.2423688,-8.6734178],[115.2428039,-8.6734347],[115.2429686,-8.6734419],[115.2434558,-8.6734559],[115.2435345,-8.673461],[115.2439829,-8.6734684],[115.2442937,-8.6734672],[115.244361,-8.6734659],[115.2445449,-8.6734505],[115.2446187,-8.6734259],[115.2447034,-8.6733987]],[[115.2357788,-8.6704529],[115.2357534,-8.6704445],[115.2357329,-8.6704275],[115.2357226,-8.6704108],[115.2357173,-8.670392],[115.2357174,-8.6703725],[115.2357228,-8.6703537],[115.2357327,-8.6703377],[115.2357465,-8.6703249],[115.2357631,-8.670316],[115.2357816,-8.6703118],[115.2358005,-8.6703124],[115.2358183,-8.6703178],[115.235834,-8.6703275],[115.2358468,-8.6703408],[115.2358556,-8.670357],[115.23586,-8.6703747],[115.2358597,-8.670393],[115.2358546,-8.6704105],[115.2358452,-8.6704263],[115.2358267,-8.6704427],[115.2358037,-8.670452],[115.2357788,-8.6704529]],[[115.2058645,-8.6350325],[115.2065494,-8.6349845],[115.2066448,-8.6349774],[115.2066791,-8.6349738],[115.2067816,-8.6349631],[115.2067982,-8.6351273],[115.2068176,-8.6353109],[115.2068305,-8.6354277],[115.2068436,-8.635547],[115.2068517,-8.6356234],[115.2069008,-8.6360821],[115.2069145,-8.6362178],[115.2069188,-8.6362446],[115.2069416,-8.6364489],[115.2069703,-8.6366742],[115.2070053,-8.6369368],[115.207057,-8.6371996],[115.2070664,-8.6372473],[115.2071561,-8.6376295],[115.2072435,-8.6379378],[115.2072681,-8.6380276],[115.2072785,-8.6380663],[115.2073615,-8.63836],[115.2073956,-8.6384867],[115.2074589,-8.6386957],[115.2075315,-8.6389496],[115.2078522,-8.6388774],[115.2082412,-8.6387509],[115.2083798,-8.638701],[115.2085859,-8.6386262],[115.2088342,-8.6385395],[115.2088897,-8.6385191],[115.2092177,-8.6384018],[115.2093967,-8.6383369],[115.2096279,-8.638253],[115.2100208,-8.6381164],[115.2105432,-8.6379309],[115.2106408,-8.637897],[115.2106676,-8.6378877],[115.2108667,-8.6378186],[115.2110877,-8.6377419],[115.2111045,-8.6377361],[115.2112347,-8.6376909],[115.2113365,-8.6376556],[115.2116188,-8.6375576],[115.2118059,-8.6374959],[115.2120482,-8.6374175],[115.2121988,-8.6373693],[115.2124572,-8.6372879],[115.2127741,-8.6371804],[115.2134018,-8.6369861],[115.2134418,-8.6369708],[115.2137424,-8.636878],[115.2138981,-8.6368245],[115.2140855,-8.6367642],[115.2146042,-8.6366015],[115.215194,-8.6364175],[115.2152207,-8.6364085],[115.2154534,-8.6362899],[115.2159235,-8.636134],[115.216036,-8.6361042],[115.2164347,-8.636061],[115.2167278,-8.6359919],[115.216971,-8.6359372],[115.2172092,-8.6358989],[115.217802,-8.6358148],[115.2180194,-8.6357952],[115.2181287,-8.6357842],[115.2183378,-8.6357703],[115.2185697,-8.6357627],[115.218994,-8.6357667],[115.2192295,-8.6357705],[115.2196625,-8.6357726],[115.2202738,-8.6357761],[115.2207979,-8.6357835],[115.2213225,-8.6357794],[115.2216521,-8.6357616],[115.2218027,-8.6357419],[115.2218417,-8.6357368],[115.2220933,-8.635704],[115.2222351,-8.6356874],[115.2223017,-8.6356799],[115.2224568,-8.6356623],[115.2225534,-8.6356513],[115.222744,-8.6356213],[115.2227754,-8.6356169],[115.223024,-8.6355736],[115.22329,-8.63554],[115.2233995,-8.6355261],[115.2234798,-8.635516],[115.2235451,-8.6355076],[115.2237747,-8.6354885],[115.2239886,-8.6354721],[115.2242766,-8.6354613],[115.2244617,-8.6354638],[115.2247024,-8.6354776],[115.2249575,-8.6354928],[115.2251765,-8.6355046],[115.2255169,-8.6355332],[115.2257501,-8.6355492],[115.2258802,-8.6355593],[115.2260271,-8.6355716],[115.2262503,-8.635586],[115.2264532,-8.6355986],[115.226612,-8.6356134],[115.2267702,-8.6356265],[115.2269177,-8.635638],[115.2271754,-8.6356509],[115.2274837,-8.6356669],[115.2277965,-8.635671],[115.2279919,-8.6356675],[115.228364,-8.6356627],[115.2285399,-8.635658],[115.2286334,-8.6356555],[115.2288202,-8.635654],[115.2290352,-8.6356473],[115.2292919,-8.6356363],[115.2294073,-8.6356306],[115.2294975,-8.6356274],[115.2296088,-8.6356261],[115.2297536,-8.6356003],[115.2298523,-8.6356018],[115.2300012,-8.6356056],[115.2301497,-8.6356104],[115.2303564,-8.6356239],[115.2306221,-8.6356428],[115.230859,-8.6356593],[115.2311065,-8.6356766],[115.2312775,-8.6356875],[115.2314266,-8.6356982],[115.2315718,-8.6357061],[115.2317962,-8.6357236],[115.2318569,-8.6357271],[115.2319185,-8.6357302],[115.2321149,-8.6357453],[115.2322097,-8.6357538],[115.2322837,-8.63579],[115.2323576,-8.6357963],[115.2328464,-8.6358381],[115.232902,-8.635842],[115.2330495,-8.6358541],[115.2331934,-8.6358664],[115.2334484,-8.6358932],[115.2340443,-8.6359592],[115.2344338,-8.6359998],[115.23457,-8.6360051],[115.2350992,-8.6360073],[115.235384,-8.6360152],[115.2356004,-8.6360236],[115.2359108,-8.6360481],[115.2364675,-8.6361006],[115.2370296,-8.6361496],[115.2373232,-8.6361685],[115.2374955,-8.6361789],[115.2375879,-8.6361822],[115.2378459,-8.6361831],[115.2379869,-8.6361813],[115.2380345,-8.636178],[115.2380755,-8.6361739],[115.2385904,-8.6361397],[115.2387583,-8.6361274],[115.2388884,-8.636116],[115.2389377,-8.6361125],[115.2395171,-8.6360643],[115.2400199,-8.6360287],[115.2404951,-8.6359865],[115.2407569,-8.6359613],[115.2408261,-8.6359541],[115.2413952,-8.6359036],[115.2415435,-8.6358874],[115.2416709,-8.6358743],[115.2427295,-8.6357714],[115.2432502,-8.635726],[115.2439628,-8.6356639],[115.2444271,-8.6356271],[115.2446868,-8.6355989],[115.2452767,-8.6355453],[115.2453435,-8.6355419],[115.246279,-8.6354686],[115.2478339,-8.6353289],[115.2479449,-8.6353208],[115.2481402,-8.6353025],[115.2482876,-8.6352845],[115.2490145,-8.6352047],[115.2491722,-8.6351892],[115.2493348,-8.6351786],[115.2494559,-8.6351708],[115.2496339,-8.6351651],[115.2497771,-8.6351654],[115.2498738,-8.635168],[115.2499717,-8.6351727],[115.2501042,-8.6351823],[115.2502945,-8.6352138],[115.2504686,-8.6352455],[115.2505582,-8.6352651],[115.2507297,-8.635309],[115.2508728,-8.6353521],[115.2510049,-8.6353974],[115.2511375,-8.6354485],[115.2512807,-8.635522],[115.2513912,-8.6355966],[115.2515023,-8.6356835],[115.2516415,-8.6357988],[115.2519173,-8.636052],[115.2519817,-8.6361125],[115.2520371,-8.6361593],[115.2521799,-8.6362954],[115.2522115,-8.6363277],[115.2523125,-8.6364321],[115.2524433,-8.636562],[115.2525419,-8.6366778],[115.2526161,-8.6367794],[115.2527267,-8.6369402],[115.2528101,-8.637063],[115.2528952,-8.6371924],[115.2529486,-8.6372811],[115.2529878,-8.6373461],[115.2530372,-8.6374278],[115.2530822,-8.6375066],[115.253174,-8.6376636],[115.2532165,-8.6377485],[115.2533405,-8.6379249],[115.253415,-8.6380838],[115.2534961,-8.6382543],[115.2535828,-8.638442],[115.2536315,-8.6385613],[115.2536697,-8.638657],[115.2537055,-8.6387468],[115.2537767,-8.6389494],[115.2538165,-8.6390652],[115.2538455,-8.6391479],[115.2537703,-8.6392142],[115.2536818,-8.6392819],[115.253513,-8.6394028],[115.2532203,-8.6395984],[115.2531736,-8.6396226],[115.2531073,-8.6396406],[115.2530875,-8.6396607],[115.2528491,-8.6398594],[115.2527484,-8.6399561],[115.2526757,-8.6400376],[115.2526544,-8.6400651],[115.2524832,-8.6402514],[115.2523568,-8.6404082],[115.252149,-8.6406575],[115.2519867,-8.6408537],[115.2517949,-8.6410871],[115.2516595,-8.6412542],[115.2515441,-8.6413934],[115.2514958,-8.6414663],[115.2514171,-8.6415536],[115.2513038,-8.6416791],[115.2511647,-8.6418207],[115.2510614,-8.6419131],[115.25095,-8.6420059],[115.2508642,-8.6420735],[115.2506977,-8.6422025],[115.2503012,-8.6424925],[115.2497656,-8.6429365],[115.2493179,-8.6433159],[115.2492899,-8.643341],[115.2490738,-8.6435347],[115.2489263,-8.6436739],[115.2488204,-8.643768],[115.2484384,-8.6441012],[115.2480941,-8.6443812],[115.2479694,-8.6444959],[115.2478836,-8.6445761],[115.2477884,-8.6446577],[115.2476925,-8.6447359],[115.2475671,-8.6448188],[115.247439,-8.644889],[115.2473076,-8.6449461],[115.2472372,-8.6449752],[115.2471668,-8.6449985],[115.2469361,-8.6450561],[115.2467912,-8.6450959],[115.246631,-8.6451396],[115.2465109,-8.6451675],[115.2464123,-8.6451933],[115.2463004,-8.6452252],[115.2462246,-8.6452543],[115.2461623,-8.6452835],[115.2461086,-8.64532],[115.2460543,-8.6453683],[115.2460215,-8.6454188],[115.2459973,-8.6454804],[115.2459772,-8.6455513],[115.2459658,-8.6456156],[115.2459457,-8.6457303],[115.2459289,-8.6458026],[115.2459088,-8.6458543],[115.2458847,-8.6459013],[115.2458411,-8.645961],[115.2457982,-8.6460081],[115.2457331,-8.6460505],[115.2456466,-8.6460896],[115.245542,-8.6461281],[115.2451538,-8.6462567],[115.245141,-8.646261],[115.2451284,-8.6462653],[115.2451142,-8.6462699],[115.2450994,-8.6462752],[115.244732,-8.6464085],[115.2444001,-8.6465199],[115.2442713,-8.6465656],[115.2442009,-8.6465915],[115.2439535,-8.646675],[115.2438267,-8.6467214],[115.2435417,-8.6468175],[115.2434445,-8.6468507],[115.2433936,-8.6468619],[115.2433419,-8.6468696],[115.2433024,-8.6468725],[115.2432417,-8.6468765],[115.2431864,-8.6468792],[115.243128,-8.6468792],[115.2429875,-8.6468815],[115.2428766,-8.6468825],[115.2428497,-8.6468831],[115.2428263,-8.6468855],[115.2427902,-8.6468938],[115.2427546,-8.6469083],[115.2427264,-8.6469223],[115.2426895,-8.6469494],[115.2426553,-8.6469779],[115.2426224,-8.6470124],[115.2425668,-8.647078],[115.2425144,-8.647149],[115.2424606,-8.6472139],[115.2424293,-8.647255],[115.2423736,-8.64733],[115.2423542,-8.6473638],[115.2423354,-8.6474069],[115.2423146,-8.6474619],[115.2422945,-8.6475282],[115.2422798,-8.6475965],[115.2422697,-8.6476528],[115.2422509,-8.6477118],[115.2422308,-8.6477622],[115.2422087,-8.647795],[115.2421892,-8.6478169],[115.2421664,-8.6478404],[115.2421054,-8.6478729],[115.2420424,-8.6478954],[115.2419478,-8.6479233],[115.2418741,-8.6479379],[115.2417038,-8.6479571],[115.2415247,-8.6479717],[115.2413557,-8.6479869],[115.2412431,-8.6479975],[115.2409628,-8.6480293],[115.2405356,-8.6480711],[115.2403711,-8.6480869],[115.2402762,-8.648097],[115.2400448,-8.6481215],[115.2399553,-8.6481328],[115.2398953,-8.6481374],[115.2397675,-8.6481487],[115.2396525,-8.6481586],[115.239497,-8.6481699],[115.2392884,-8.6481884],[115.2390551,-8.6482097],[115.2388127,-8.6482302],[115.2385103,-8.6482561],[115.23727,-8.6483631],[115.2372278,-8.6483669],[115.2368188,-8.6484113],[115.2364944,-8.6484375],[115.2363661,-8.6484445],[115.2361823,-8.6484613],[115.2361241,-8.6484682],[115.2358436,-8.6484907],[115.2357418,-8.6484981],[115.2354083,-8.6485311],[115.2349319,-8.648573],[115.2345926,-8.6486085],[115.2338362,-8.6486817],[115.2336889,-8.6486972],[115.2335412,-8.6487054],[115.2334285,-8.6487108],[115.2320808,-8.6487992],[115.2318827,-8.6488128],[115.2317489,-8.6488251],[115.2315227,-8.6488408],[115.2310963,-8.6488776],[115.230786,-8.6489054],[115.2304156,-8.6489439],[115.2299671,-8.6489853],[115.2298766,-8.648995],[115.2297592,-8.6490025],[115.228644,-8.6490832],[115.2284362,-8.6491013],[115.228225,-8.6491258],[115.228113,-8.6491385],[115.2279885,-8.6491448],[115.2274297,-8.649173],[115.2272715,-8.6491804],[115.2266268,-8.6491934],[115.2263132,-8.6492054],[115.2262643,-8.6492067],[115.2258418,-8.6492014],[115.2256541,-8.6492054],[115.2256293,-8.6492068],[115.2255629,-8.6492071],[115.2251257,-8.6492027],[115.2249332,-8.649208],[115.224909,-8.6492077],[115.2246378,-8.649214],[115.2245323,-8.6492457],[115.2244968,-8.6492683],[115.2244759,-8.6492926],[115.2244621,-8.649335],[115.2244545,-8.6493823],[115.2244517,-8.6494383],[115.2244529,-8.64957],[115.2244538,-8.6496641],[115.2244551,-8.6500301],[115.2244565,-8.6503509],[115.2244525,-8.6507115],[115.2244444,-8.6512936],[115.2244452,-8.6516224],[115.2244445,-8.6518014],[115.2244478,-8.6518883],[115.2244498,-8.6519327],[115.2244572,-8.6519711],[115.2244649,-8.6520016],[115.2244806,-8.6520477],[115.2244541,-8.6520735],[115.2244409,-8.6520856],[115.2244251,-8.6520974],[115.2244069,-8.6521068],[115.2243787,-8.6521163],[115.2242244,-8.6521249],[115.2240468,-8.6521204],[115.2238812,-8.6521199],[115.2237108,-8.6521194],[115.223672,-8.6521193],[115.2234647,-8.6521195],[115.2231409,-8.6521178],[115.2228906,-8.6521167],[115.2226071,-8.6521154],[115.2225535,-8.6521151],[115.2225494,-8.6521793],[115.2225388,-8.6522231],[115.2225158,-8.6522767],[115.2225257,-8.6527466],[115.2225237,-8.6528803],[115.222526,-8.6531723],[115.222528,-8.653332],[115.2225308,-8.6536737],[115.2225491,-8.6546266],[115.2225495,-8.6550342],[115.2225302,-8.6552699],[115.2225061,-8.6554989],[115.2225032,-8.655519],[115.2224857,-8.6556273],[115.2224658,-8.6557098],[115.2223483,-8.6561233],[115.2223099,-8.656281],[115.2222447,-8.6565718],[115.2222423,-8.6565925],[115.2222263,-8.6567294],[115.2220531,-8.6567094],[115.222038,-8.6567078],[115.2220217,-8.656706],[115.2217984,-8.6566831],[115.2215476,-8.6566433],[115.2214523,-8.6566286],[115.2209627,-8.6565486],[115.2205747,-8.6564945],[115.2205335,-8.6564887],[115.2200215,-8.656416],[115.2199897,-8.6565446],[115.2199551,-8.6567057],[115.2199256,-8.6568893],[115.2199081,-8.6570152],[115.2199028,-8.6571498],[115.2199028,-8.6573401],[115.2199148,-8.6575595],[115.2199262,-8.6577305],[115.2199289,-8.6578333],[115.2199309,-8.6579241],[115.2199262,-8.6580328],[115.2199109,-8.658124],[115.2198833,-8.6581939],[115.2198525,-8.6582595],[115.2198302,-8.6583429],[115.2198256,-8.6584551],[115.2198478,-8.6588774],[115.2198605,-8.6590147],[115.2198635,-8.6590472],[115.2198704,-8.6591707],[115.219876,-8.6592314],[115.2198767,-8.6594862],[115.2198713,-8.6596718],[115.2198659,-8.6598803],[115.2198644,-8.6599659],[115.2198591,-8.6602722],[115.2198511,-8.6603644],[115.2198357,-8.660585],[115.2198382,-8.6607669],[115.2198419,-8.6608205],[115.2198458,-8.6608777],[115.2198705,-8.6611266],[115.2198746,-8.661228],[115.2198739,-8.6612691],[115.2198627,-8.6612928],[115.2198342,-8.6613124],[115.2193095,-8.6613113],[115.2188388,-8.6613026],[115.2185221,-8.6612936],[115.2184238,-8.6612909],[115.2183749,-8.6613005],[115.2183344,-8.661321],[115.2183107,-8.6613414],[115.2182947,-8.6613718],[115.2182846,-8.6614223],[115.2182756,-8.6614828],[115.2182705,-8.6615271],[115.2182647,-8.6616433],[115.2182425,-8.6620784],[115.2182399,-8.6621327],[115.2182237,-8.6623768],[115.2182212,-8.6624169],[115.2182019,-8.6628385],[115.2181978,-8.6629954],[115.2181622,-8.6637029],[115.2181609,-8.6637208],[115.2181474,-8.663915],[115.2181273,-8.6643605],[115.2180492,-8.6659788],[115.2180476,-8.6660187],[115.2180457,-8.6660671],[115.2180289,-8.6663406],[115.2180058,-8.6667553],[115.2179969,-8.6671079],[115.2179848,-8.6674522],[115.2179834,-8.6674904],[115.217979,-8.6676057],[115.2179779,-8.667701],[115.2179802,-8.6682316],[115.2179858,-8.6684377],[115.2180146,-8.6687892],[115.2180738,-8.6694189],[115.2181754,-8.6695249],[115.2182216,-8.6695686],[115.2182485,-8.6695878],[115.2183022,-8.6696133],[115.2188978,-8.66963],[115.219604,-8.6696266],[115.2204438,-8.6696347],[115.220574,-8.6696395],[115.2210711,-8.6696654],[115.2213364,-8.6696793],[115.2214323,-8.6696747],[115.2214819,-8.6696667],[115.2215192,-8.6696609],[115.2215718,-8.6696442],[115.2216294,-8.6696124],[115.2216978,-8.6695339],[115.2217394,-8.669448],[115.2217501,-8.6694228],[115.2217801,-8.6693288],[115.2218076,-8.6690783],[115.2218155,-8.6689903],[115.2218358,-8.6686721],[115.2218373,-8.6686163],[115.221857,-8.6684194],[115.2218742,-8.6681933],[115.2218888,-8.6679297],[115.2219079,-8.6676416],[115.2219204,-8.6673901],[115.2219272,-8.6672684],[115.2219359,-8.6671361],[115.221943,-8.6670571],[115.2219846,-8.6669078],[115.222009,-8.6668733],[115.2220569,-8.6668325],[115.2221223,-8.6667853],[115.2221575,-8.6667599],[115.2222115,-8.666738],[115.2222961,-8.6667219],[115.2225414,-8.6667182],[115.222642,-8.6667212],[115.2230264,-8.6667516],[115.2233366,-8.6667738],[115.2236574,-8.6667945],[115.2237109,-8.666798],[115.2240994,-8.6668145],[115.224186,-8.6668181],[115.2243674,-8.6668282],[115.2244886,-8.6668344],[115.2253634,-8.6668808],[115.2254826,-8.6668878],[115.2255248,-8.6668895],[115.2260544,-8.6669115],[115.2263591,-8.6669242],[115.2266319,-8.6669355],[115.2269457,-8.6669485],[115.227007,-8.6669517],[115.2270914,-8.666956],[115.2271796,-8.6669605],[115.2272097,-8.6669621],[115.2275118,-8.6669778],[115.2278102,-8.6669933],[115.2284714,-8.6670278],[115.2284709,-8.6670726],[115.2284623,-8.667831],[115.2284618,-8.6678655],[115.2284613,-8.6679221],[115.2284608,-8.6679714],[115.2284576,-8.6682517],[115.2284545,-8.6684697],[115.2284523,-8.6686412],[115.2284529,-8.6686703],[115.2284499,-8.6689421],[115.2284493,-8.6689936],[115.2284482,-8.6690927],[115.2284478,-8.669191],[115.2284398,-8.6698428],[115.2284402,-8.6701407],[115.228494,-8.6701444],[115.2289538,-8.6701759],[115.2290294,-8.6701779],[115.2290781,-8.6701792],[115.2292999,-8.6701852],[115.2299713,-8.6702033],[115.2303347,-8.6702204],[115.2307071,-8.6702267],[115.2310682,-8.6702399],[115.2312103,-8.6702448],[115.2319666,-8.670273],[115.232255,-8.6702905],[115.2323099,-8.6702942],[115.2323539,-8.6692469],[115.2323576,-8.6691811],[115.2323573,-8.6691708],[115.2324066,-8.6691726],[115.2335764,-8.6692157],[115.234634,-8.669243],[115.2356021,-8.669272],[115.2356961,-8.6692748],[115.235696,-8.6692838],[115.2356949,-8.6693497],[115.2356926,-8.6694539],[115.2356909,-8.6696747],[115.2356936,-8.6698974],[115.235697,-8.670028],[115.2357046,-8.6701573],[115.235756,-8.6702308],[115.2358005,-8.6703124]]]}},{"type":"Feature","id":"way/1550718563","properties":{"timestamp":"2026-09-29T08:44:09Z","version":2,"changeset":189715558,"user":"FajrAl","uid":2649988,"addr:city":"Denpasar","addr:district":"Denpasar Selatan","addr:neighbourhood":"Sanur Kaja","addr:postcode":"80227","addr:province":"Bali","addr:street":"Jalan Hang Tuah","addr:subdistrict":"Sanur","amenity":"restaurant","building":"yes","cuisine":"mediterranean","diet:meat":"yes","diet:omnivore":"yes","name":"Solea Rooftop Bar & Restaurant","opening_hours":"Mo-Su 17:30-00:00","phone":"+62 823 1353 1891","website":"https://soleabali.com","id":"way/1550718563","_created":false,"_user":"FajrAl","_timestamp":"2026-09-29T08:44:09Z","_version":2,"_osmId":"way/1550718563"},"geometry":{"type":"Polygon","coordinates":[[[115.2639616,-8.6774887],[115.2639473,-8.6775986],[115.2641696,-8.6776189],[115.2641767,-8.6775011],[115.2639616,-8.6774887]]]}},{"type":"Feature","id":"way/25133559","properties":{"timestamp":"2026-09-30T20:16:20Z","version":10,"changeset":189792755,"user":"Baconcrisp","uid":3778777,"foot":"no","highway":"service","surface":"asphalt","id":"way/25133559","_created":false,"_user":"Baconcrisp","_timestamp":"2026-09-30T20:16:20Z","_version":10,"_osmId":"way/25133559"},"geometry":{"type":"LineString","coordinates":[[115.244361,-8.6734659],[115.2443327,-8.6736404]]}},{"type":"Feature","id":"way/64777215","properties":{"timestamp":"2026-09-30T20:16:20Z","version":5,"changeset":189792755,"user":"Baconcrisp","uid":3778777,"highway":"living_street","motorcar":"no","motorcycle":"yes","surface":"paving_stones","id":"way/64777215","_created":false,"_user":"Baconcrisp","_timestamp":"2026-09-30T20:16:20Z","_version":5,"_osmId":"way/64777215"},"geometry":{"type":"LineString","coordinates":[[115.2636601,-8.6933078],[115.2628448,-8.693129]]}},{"type":"Feature","id":"way/199777824","properties":{"timestamp":"2026-09-30T20:30:06Z","version":9,"changeset":189793202,"user":"Baconcrisp","uid":3778777,"highway":"trunk_link","lane_markings":"no","lanes":"1","oneway":"yes","surface":"asphalt","id":"way/199777824","_created":false,"_user":"Baconcrisp","_timestamp":"2026-09-30T20:30:06Z","_version":9,"_osmId":"way/199777824"},"geometry":{"type":"LineString","coordinates":[[115.2587706,-8.6986672],[115.2586707,-8.698671]]}},{"type":"Feature","id":"way/199777828","properties":{"timestamp":"2026-09-30T20:30:06Z","version":8,"changeset":189793202,"user":"Baconcrisp","uid":3778777,"highway":"trunk_link","lane_markings":"no","lanes":"1","oneway":"yes","surface":"asphalt","id":"way/199777828","_created":false,"_user":"Baconcrisp","_timestamp":"2026-09-30T20:30:06Z","_version":8,"_osmId":"way/199777828"},"geometry":{"type":"LineString","coordinates":[[115.2586657,-8.6966229],[115.258768,-8.6966223]]}},{"type":"Feature","id":"way/216998744","properties":{"timestamp":"2026-10-01T17:33:34Z","version":11,"changeset":189838921,"user":"TriglavMountain","uid":22315963,"alt_name":"Jalan Pemamoran","class:bicycle:commute":"1","highway":"living_street","lanes":"1","motorcycle":"yes","name":"Gang Ⅱ","parking:lane:left":"on_kerb","smoothness":"good","surface":"asphalt","id":"way/216998744","_created":false,"_user":"TriglavMountain","_timestamp":"2026-10-01T17:33:34Z","_version":11,"_osmId":"way/216998744"},"geometry":{"type":"LineString","coordinates":[[115.2588679,-8.6799215],[115.258778,-8.6799361],[115.258538,-8.6799785],[115.2583448,-8.680007],[115.2580498,-8.6800116],[115.2576032,-8.6800169],[115.2574779,-8.6800249],[115.2573632,-8.6800634]]}},{"type":"Feature","id":"way/318778330","properties":{"timestamp":"2026-09-30T20:39:27Z","version":9,"changeset":189793500,"user":"Baconcrisp","uid":3778777,"highway":"residential","name":"Jalan Laksamana XV","surface":"asphalt","id":"way/318778330","_created":false,"_user":"Baconcrisp","_timestamp":"2026-09-30T20:39:27Z","_version":9,"_osmId":"way/318778330"},"geometry":{"type":"LineString","coordinates":[[115.2403754,-8.6721642],[115.2403916,-8.6721637],[115.2404136,-8.6721654],[115.2404784,-8.6721683],[115.241876,-8.6721732]]}},{"type":"Feature","id":"way/483376718","properties":{"timestamp":"2026-09-30T20:16:20Z","version":12,"changeset":189792755,"user":"Baconcrisp","uid":3778777,"highway":"living_street","motorcar":"no","motorcycle":"yes","name":"Jalan Prapat Beris","id":"way/483376718","_created":false,"_user":"Baconcrisp","_timestamp":"2026-09-30T20:16:20Z","_version":12,"_osmId":"way/483376718"},"geometry":{"type":"LineString","coordinates":[[115.2474725,-8.693068],[115.2475513,-8.6930873],[115.2476093,-8.6931071],[115.2477482,-8.6931727],[115.248296,-8.6934571],[115.248829,-8.6937391],[115.2490342,-8.6938641],[115.2490573,-8.6938761],[115.2490838,-8.693886],[115.2491073,-8.6938847],[115.2491334,-8.6938761],[115.2491723,-8.6938529],[115.2494111,-8.6936493],[115.2494587,-8.6936221],[115.2494996,-8.6936122],[115.2495546,-8.6936108],[115.2497913,-8.69364]]}},{"type":"Feature","id":"way/492685321","properties":{"timestamp":"2026-09-30T20:48:24Z","version":6,"changeset":189793765,"user":"Baconcrisp","uid":3778777,"highway":"path","id":"way/492685321","_created":false,"_user":"Baconcrisp","_timestamp":"2026-09-30T20:48:24Z","_version":6,"_osmId":"way/492685321"},"geometry":{"type":"LineString","coordinates":[[115.239502,-8.6795941],[115.2396311,-8.6796102],[115.2396968,-8.6796073],[115.2397392,-8.6796076],[115.2397826,-8.6795158],[115.2398336,-8.6795039],[115.2400253,-8.6795118],[115.2401729,-8.6795417],[115.2402025,-8.6795601]]}},{"type":"Feature","id":"way/593956963","properties":{"timestamp":"2026-09-29T06:27:44Z","version":3,"changeset":189710733,"user":"GrabID_Lydya","uid":23752865,"highway":"living_street","motorcar":"no","id":"way/593956963","_created":false,"_user":"GrabID_Lydya","_timestamp":"2026-09-29T06:27:44Z","_version":3,"_osmId":"way/593956963"},"geometry":{"type":"LineString","coordinates":[[115.2587634,-8.6979007],[115.2590261,-8.6979074]]}},{"type":"Feature","id":"way/593962858","properties":{"timestamp":"2026-09-30T20:16:20Z","version":3,"changeset":189792755,"user":"Baconcrisp","uid":3778777,"highway":"residential","name":"Jalan Tunggak Bingin","id":"way/593962858","_created":false,"_user":"Baconcrisp","_timestamp":"2026-09-30T20:16:20Z","_version":3,"_osmId":"way/593962858"},"geometry":{"type":"LineString","coordinates":[[115.250321,-8.6971352],[115.2493785,-8.6970577],[115.2493088,-8.6970518],[115.2486845,-8.697025]]}},{"type":"Feature","id":"way/593962859","properties":{"timestamp":"2026-09-30T20:16:20Z","version":4,"changeset":189792755,"user":"Baconcrisp","uid":3778777,"bridge":"yes","highway":"residential","layer":"1","name":"Jalan Tunggak Bingin","id":"way/593962859","_created":false,"_user":"Baconcrisp","_timestamp":"2026-09-30T20:16:20Z","_version":4,"_osmId":"way/593962859"},"geometry":{"type":"LineString","coordinates":[[115.2503855,-8.6971363],[115.250321,-8.6971352]]}},{"type":"Feature","id":"way/593962878","properties":{"timestamp":"2026-09-30T20:16:21Z","version":6,"changeset":189792755,"user":"Baconcrisp","uid":3778777,"alt_name":"Gang III","highway":"residential","lane_markings":"no","name":"Jalan Kutat Lestari","sidewalk":"no","surface":"asphalt","id":"way/593962878","_created":false,"_user":"Baconcrisp","_timestamp":"2026-09-30T20:16:21Z","_version":6,"_osmId":"way/593962878"},"geometry":{"type":"LineString","coordinates":[[115.2515066,-8.6981865],[115.2517292,-8.6992411]]}},{"type":"Feature","id":"way/594394359","properties":{"timestamp":"2026-09-30T20:16:21Z","version":8,"changeset":189792755,"user":"Baconcrisp","uid":3778777,"highway":"living_street","motorcar":"no","motorcycle":"yes","name":"Gang VIII","id":"way/594394359","_created":false,"_user":"Baconcrisp","_timestamp":"2026-09-30T20:16:21Z","_version":8,"_osmId":"way/594394359"},"geometry":{"type":"LineString","coordinates":[[115.2523393,-8.6790579],[115.252617,-8.6790438],[115.2528758,-8.6790193],[115.2531749,-8.6790076],[115.253309,-8.6789988],[115.2533613,-8.6789895],[115.25339,-8.6789849],[115.2534445,-8.6789762],[115.2535598,-8.678963],[115.2536181,-8.6789597],[115.2537047,-8.6789632],[115.253765,-8.6789696],[115.2539032,-8.6790053]]}},{"type":"Feature","id":"way/594413607","properties":{"timestamp":"2026-09-30T20:16:21Z","version":4,"changeset":189792755,"user":"Baconcrisp","uid":3778777,"alt_name":"Gang II/1","highway":"path","motorcar":"no","name":"Jalan Gunung Sari","id":"way/594413607","_created":false,"_user":"Baconcrisp","_timestamp":"2026-09-30T20:16:21Z","_version":4,"_osmId":"way/594413607"},"geometry":{"type":"LineString","coordinates":[[115.249051,-8.6819789],[115.2492776,-8.6819611]]}},{"type":"Feature","id":"way/594413619","properties":{"timestamp":"2026-09-30T20:39:27Z","version":5,"changeset":189793500,"user":"Baconcrisp","uid":3778777,"access":"private","highway":"living_street","id":"way/594413619","_created":false,"_user":"Baconcrisp","_timestamp":"2026-09-30T20:39:27Z","_version":5,"_osmId":"way/594413619"},"geometry":{"type":"LineString","coordinates":[[115.248886,-8.6806986],[115.2492817,-8.6806984],[115.2497336,-8.6806984]]}},{"type":"Feature","id":"way/594414759","properties":{"timestamp":"2026-09-30T20:16:21Z","version":5,"changeset":189792755,"user":"Baconcrisp","uid":3778777,"alt_name":"Gang II","highway":"living_street","name":"Jalan Pantai Sindu","id":"way/594414759","_created":false,"_user":"Baconcrisp","_timestamp":"2026-09-30T20:16:21Z","_version":5,"_osmId":"way/594414759"},"geometry":{"type":"LineString","coordinates":[[115.2617124,-8.683436],[115.2615491,-8.6834287],[115.2615353,-8.6834377],[115.261529,-8.6834513],[115.2615139,-8.6843163]]}},{"type":"Feature","id":"way/722117380","properties":{"timestamp":"2026-09-30T20:48:24Z","version":6,"changeset":189793765,"user":"Baconcrisp","uid":3778777,"highway":"living_street","import":"yes","source":"digitalglobe","surface":"paving_stones","id":"way/722117380","_created":false,"_user":"Baconcrisp","_timestamp":"2026-09-30T20:48:24Z","_version":6,"_osmId":"way/722117380"},"geometry":{"type":"LineString","coordinates":[[115.2553904,-8.6822998],[115.2554078,-8.6820198],[115.2554005,-8.6818856]]}},{"type":"Feature","id":"way/922446559","properties":{"timestamp":"2026-09-30T20:16:21Z","version":2,"changeset":189792755,"user":"Baconcrisp","uid":3778777,"bridge":"yes","highway":"residential","layer":"1","name":"Blok Gamelan","id":"way/922446559","_created":false,"_user":"Baconcrisp","_timestamp":"2026-09-30T20:16:21Z","_version":2,"_osmId":"way/922446559"},"geometry":{"type":"LineString","coordinates":[[115.253894,-8.6724787],[115.2539285,-8.6724739]]}},{"type":"Feature","id":"way/922446561","properties":{"timestamp":"2026-09-30T20:16:21Z","version":3,"changeset":189792755,"user":"Baconcrisp","uid":3778777,"highway":"residential","name":"Blok Gamelan","surface":"concrete","id":"way/922446561","_created":false,"_user":"Baconcrisp","_timestamp":"2026-09-30T20:16:21Z","_version":3,"_osmId":"way/922446561"},"geometry":{"type":"LineString","coordinates":[[115.2539285,-8.6724739],[115.2541074,-8.6724509],[115.2545492,-8.6724165]]}},{"type":"Feature","id":"way/997404672","properties":{"timestamp":"2026-09-30T20:39:27Z","version":3,"changeset":189793500,"user":"Baconcrisp","uid":3778777,"highway":"service","id":"way/997404672","_created":false,"_user":"Baconcrisp","_timestamp":"2026-09-30T20:39:27Z","_version":3,"_osmId":"way/997404672"},"geometry":{"type":"LineString","coordinates":[[115.2504912,-8.6997968],[115.2505033,-8.6998309]]}},{"type":"Feature","id":"way/1022470058","properties":{"timestamp":"2026-09-30T20:39:27Z","version":4,"changeset":189793500,"user":"Baconcrisp","uid":3778777,"access":"private","highway":"residential","id":"way/1022470058","_created":false,"_user":"Baconcrisp","_timestamp":"2026-09-30T20:39:27Z","_version":4,"_osmId":"way/1022470058"},"geometry":{"type":"LineString","coordinates":[[115.2443683,-8.6840456],[115.2442941,-8.6845324],[115.2442727,-8.6846861],[115.2442485,-8.6849169],[115.2442056,-8.6853994],[115.2441781,-8.6855704],[115.2441493,-8.6857176],[115.2441325,-8.6857773]]}},{"type":"Feature","id":"way/1063531481","properties":{"timestamp":"2026-09-30T20:30:06Z","version":5,"changeset":189793202,"user":"Baconcrisp","uid":3778777,"highway":"trunk_link","lanes":"1","oneway":"no","surface":"asphalt","id":"way/1063531481","_created":false,"_user":"Baconcrisp","_timestamp":"2026-09-30T20:30:06Z","_version":5,"_osmId":"way/1063531481"},"geometry":{"type":"LineString","coordinates":[[115.2562004,-8.6679779],[115.2561541,-8.6679883],[115.2561087,-8.6680027]]}},{"type":"Feature","id":"way/1123432988","properties":{"timestamp":"2026-09-30T20:39:27Z","version":2,"changeset":189793500,"user":"Baconcrisp","uid":3778777,"bicycle":"yes","foot":"yes","highway":"residential","surface":"asphalt","id":"way/1123432988","_created":false,"_user":"Baconcrisp","_timestamp":"2026-09-30T20:39:27Z","_version":2,"_osmId":"way/1123432988"},"geometry":{"type":"LineString","coordinates":[[115.2549694,-8.7088343],[115.2549843,-8.7089257]]}},{"type":"Feature","id":"way/1446436739","properties":{"timestamp":"2026-09-30T20:16:21Z","version":3,"changeset":189792755,"user":"Baconcrisp","uid":3778777,"bridge":"yes","highway":"residential","layer":"1","name":"Gang Kepuh Agung","surface":"unpaved","id":"way/1446436739","_created":false,"_user":"Baconcrisp","_timestamp":"2026-09-30T20:16:21Z","_version":3,"_osmId":"way/1446436739"},"geometry":{"type":"LineString","coordinates":[[115.2515454,-8.6712855],[115.251595,-8.6712709]]}},{"type":"Feature","id":"way/1446436740","properties":{"timestamp":"2026-09-30T20:16:22Z","version":3,"changeset":189792755,"user":"Baconcrisp","uid":3778777,"highway":"residential","name":"Gang Kepuh Agung","surface":"unpaved","id":"way/1446436740","_created":false,"_user":"Baconcrisp","_timestamp":"2026-09-30T20:16:22Z","_version":3,"_osmId":"way/1446436740"},"geometry":{"type":"LineString","coordinates":[[115.2515209,-8.6712901],[115.2515454,-8.6712855]]}},{"type":"Feature","id":"way/1495212441","properties":{"timestamp":"2026-09-30T20:39:28Z","version":2,"changeset":189793500,"user":"Baconcrisp","uid":3778777,"access":"private","highway":"residential","id":"way/1495212441","_created":false,"_user":"Baconcrisp","_timestamp":"2026-09-30T20:39:28Z","_version":2,"_osmId":"way/1495212441"},"geometry":{"type":"LineString","coordinates":[[115.2440415,-8.6853705],[115.2442056,-8.6853994]]}},{"type":"Feature","id":"way/1502131515","properties":{"timestamp":"2026-09-30T20:28:57Z","version":3,"changeset":189793162,"user":"Baconcrisp","uid":3778777,"highway":"unclassified","oneway":"yes","surface":"asphalt","id":"way/1502131515","_created":false,"_user":"Baconcrisp","_timestamp":"2026-09-30T20:28:57Z","_version":3,"_osmId":"way/1502131515"},"geometry":{"type":"LineString","coordinates":[[115.2611325,-8.6707865],[115.2612571,-8.6709958],[115.2612829,-8.6710507]]}},{"type":"Feature","id":"way/1503220025","properties":{"timestamp":"2026-09-30T20:16:22Z","version":3,"changeset":189792755,"user":"Baconcrisp","uid":3778777,"bridge":"yes","highway":"residential","layer":"1","name":"Gang Ancak","surface":"concrete","id":"way/1503220025","_created":false,"_user":"Baconcrisp","_timestamp":"2026-09-30T20:16:22Z","_version":3,"_osmId":"way/1503220025"},"geometry":{"type":"LineString","coordinates":[[115.2518284,-8.672602],[115.2518646,-8.6725914]]}},{"type":"Feature","id":"way/1503220026","properties":{"timestamp":"2026-09-30T20:16:22Z","version":3,"changeset":189792755,"user":"Baconcrisp","uid":3778777,"highway":"residential","name":"Gang Ancak","surface":"concrete","id":"way/1503220026","_created":false,"_user":"Baconcrisp","_timestamp":"2026-09-30T20:16:22Z","_version":3,"_osmId":"way/1503220026"},"geometry":{"type":"LineString","coordinates":[[115.2517976,-8.6726139],[115.2518284,-8.672602]]}},{"type":"Feature","id":"way/1503819517","properties":{"timestamp":"2026-09-30T13:01:04Z","version":5,"changeset":189773980,"user":"amtplskaart","uid":14902134,"highway":"living_street","motor_vehicle":"no","motorcycle":"yes","name":"Gang Pakisaji I","surface":"paving_stones","id":"way/1503819517","_created":false,"_user":"amtplskaart","_timestamp":"2026-09-30T13:01:04Z","_version":5,"_osmId":"way/1503819517"},"geometry":{"type":"LineString","coordinates":[[115.2417241,-8.6626449],[115.2418366,-8.6632697]]}},{"type":"Feature","id":"way/1531959648","properties":{"timestamp":"2026-09-30T20:16:22Z","version":2,"changeset":189792755,"user":"Baconcrisp","uid":3778777,"highway":"living_street","motorcar":"no","motorcycle":"yes","name":"Gang VIII","surface":"asphalt","id":"way/1531959648","_created":false,"_user":"Baconcrisp","_timestamp":"2026-09-30T20:16:22Z","_version":2,"_osmId":"way/1531959648"},"geometry":{"type":"LineString","coordinates":[[115.2519846,-8.679138],[115.2521503,-8.6790962],[115.2522415,-8.6790726],[115.2523393,-8.6790579]]}},{"type":"Feature","id":"way/1536954760","properties":{"timestamp":"2026-09-30T20:48:24Z","version":2,"changeset":189793765,"user":"Baconcrisp","uid":3778777,"highway":"path","surface":"concrete","id":"way/1536954760","_created":false,"_user":"Baconcrisp","_timestamp":"2026-09-30T20:48:24Z","_version":2,"_osmId":"way/1536954760"},"geometry":{"type":"LineString","coordinates":[[115.2402025,-8.6795601],[115.2404538,-8.6795662]]}},{"type":"Feature","id":"way/1541312792","properties":{"timestamp":"2026-09-30T20:48:24Z","version":2,"changeset":189793765,"user":"Baconcrisp","uid":3778777,"highway":"footway","id":"way/1541312792","_created":false,"_user":"Baconcrisp","_timestamp":"2026-09-30T20:48:24Z","_version":2,"_osmId":"way/1541312792"},"geometry":{"type":"LineString","coordinates":[[115.2589544,-8.6798725],[115.2590623,-8.6799281],[115.2591334,-8.6799347],[115.2593681,-8.6799135],[115.2601527,-8.6797981],[115.2604781,-8.6797585],[115.2608514,-8.6797359],[115.2610941,-8.6797571],[115.2613315,-8.6797889],[115.2614033,-8.6797992],[115.2615434,-8.6798194],[115.2616735,-8.67983],[115.2617647,-8.6798166],[115.2619095,-8.6797863],[115.2620704,-8.6797213],[115.2621992,-8.679651],[115.2622756,-8.6795799],[115.2624232,-8.679423],[115.2624942,-8.6792971],[115.2625573,-8.6791366],[115.2625868,-8.6789776],[115.2625868,-8.6787296],[115.2625962,-8.6785001],[115.2626028,-8.6780453]]}},{"type":"Feature","id":"way/1546708616","properties":{"timestamp":"2026-09-30T20:48:24Z","version":3,"changeset":189793765,"user":"Baconcrisp","uid":3778777,"highway":"footway","id":"way/1546708616","_created":false,"_user":"Baconcrisp","_timestamp":"2026-09-30T20:48:24Z","_version":3,"_osmId":"way/1546708616"},"geometry":{"type":"LineString","coordinates":[[115.2601778,-8.6766468],[115.2601874,-8.6766469]]}},{"type":"Feature","id":"way/1550511240","properties":{"timestamp":"2026-09-30T20:16:22Z","version":3,"changeset":189792755,"user":"Baconcrisp","uid":3778777,"highway":"residential","name":"Gang Soka","surface":"unpaved","id":"way/1550511240","_created":false,"_user":"Baconcrisp","_timestamp":"2026-09-30T20:16:22Z","_version":3,"_osmId":"way/1550511240"},"geometry":{"type":"LineString","coordinates":[[115.2482926,-8.6708646],[115.2487567,-8.6708311]]}},{"type":"Feature","id":"way/1553039584","properties":{"timestamp":"2026-09-30T20:48:24Z","version":2,"changeset":189793765,"user":"Baconcrisp","uid":3778777,"access":"destination","highway":"service","surface":"concrete","id":"way/1553039584","_created":false,"_user":"Baconcrisp","_timestamp":"2026-09-30T20:48:24Z","_version":2,"_osmId":"way/1553039584"},"geometry":{"type":"LineString","coordinates":[[115.2613973,-8.679865],[115.2614033,-8.6797992],[115.2614064,-8.6797649]]}},{"type":"Feature","id":"way/1563413474","properties":{"timestamp":"2026-09-29T06:27:44Z","version":1,"changeset":189710733,"user":"GrabID_Lydya","uid":23752865,"highway":"living_street","id":"way/1563413474","_created":true,"_user":"GrabID_Lydya","_timestamp":"2026-09-29T06:27:44Z","_version":1,"_osmId":"way/1563413474"},"geometry":{"type":"LineString","coordinates":[[115.2590261,-8.6979074],[115.2593695,-8.6979154]]}},{"type":"Feature","id":"way/1563907431","properties":{"timestamp":"2026-09-30T20:39:26Z","version":1,"changeset":189793500,"user":"Baconcrisp","uid":3778777,"access":"private","highway":"service","id":"way/1563907431","_created":true,"_user":"Baconcrisp","_timestamp":"2026-09-30T20:39:26Z","_version":1,"_osmId":"way/1563907431"},"geometry":{"type":"LineString","coordinates":[[115.2505033,-8.6998309],[115.2505377,-8.6999157]]}},{"type":"Feature","id":"way/1563907432","properties":{"timestamp":"2026-09-30T20:39:26Z","version":1,"changeset":189793500,"user":"Baconcrisp","uid":3778777,"highway":"living_street","id":"way/1563907432","_created":true,"_user":"Baconcrisp","_timestamp":"2026-09-30T20:39:26Z","_version":1,"_osmId":"way/1563907432"},"geometry":{"type":"LineString","coordinates":[[115.2488089,-8.6806986],[115.248886,-8.6806986]]}},{"type":"Feature","id":"way/1563907433","properties":{"timestamp":"2026-09-30T20:39:26Z","version":1,"changeset":189793500,"user":"Baconcrisp","uid":3778777,"access":"destination","highway":"residential","name":"Jalan Laksamana XV","surface":"asphalt","id":"way/1563907433","_created":true,"_user":"Baconcrisp","_timestamp":"2026-09-30T20:39:26Z","_version":1,"_osmId":"way/1563907433"},"geometry":{"type":"LineString","coordinates":[[115.2385972,-8.6721835],[115.2391398,-8.6722072],[115.2402925,-8.6721875],[115.2403754,-8.6721642]]}},{"type":"Feature","id":"way/1563908085","properties":{"timestamp":"2026-09-30T20:48:21Z","version":1,"changeset":189793765,"user":"Baconcrisp","uid":3778777,"highway":"footway","id":"way/1563908085","_created":true,"_user":"Baconcrisp","_timestamp":"2026-09-30T20:48:21Z","_version":1,"_osmId":"way/1563908085"},"geometry":{"type":"LineString","coordinates":[[115.2602481,-8.6766475],[115.2602579,-8.6766476]]}},{"type":"Feature","id":"way/1563908086","properties":{"timestamp":"2026-09-30T20:48:21Z","version":1,"changeset":189793765,"user":"Baconcrisp","uid":3778777,"bridge":"yes","highway":"footway","layer":"1","id":"way/1563908086","_created":true,"_user":"Baconcrisp","_timestamp":"2026-09-30T20:48:21Z","_version":1,"_osmId":"way/1563908086"},"geometry":{"type":"LineString","coordinates":[[115.2601874,-8.6766469],[115.2602481,-8.6766475]]}},{"type":"Feature","id":"node/5668271981","properties":{"timestamp":"2026-09-30T20:39:26Z","version":3,"changeset":189793500,"user":"Baconcrisp","uid":3778777,"access":"private","barrier":"lift_gate","id":"node/5668271981","_created":false,"_user":"Baconcrisp","_timestamp":"2026-09-30T20:39:26Z","_version":3,"_osmId":"node/5668271981"},"geometry":{"type":"Point","coordinates":[115.243645,-8.6851873]}},{"type":"Feature","id":"node/5668304622","properties":{"timestamp":"2026-09-30T20:39:26Z","version":4,"changeset":189793500,"user":"Baconcrisp","uid":3778777,"access":"private","barrier":"swing_gate","id":"node/5668304622","_created":false,"_user":"Baconcrisp","_timestamp":"2026-09-30T20:39:26Z","_version":4,"_osmId":"node/5668304622"},"geometry":{"type":"Point","coordinates":[115.2438666,-8.6852428]}},{"type":"Feature","id":"node/6752914893","properties":{"timestamp":"2026-09-30T20:39:26Z","version":2,"changeset":189793500,"user":"Baconcrisp","uid":3778777,"access":"destination","barrier":"lift_gate","id":"node/6752914893","_created":false,"_user":"Baconcrisp","_timestamp":"2026-09-30T20:39:26Z","_version":2,"_osmId":"node/6752914893"},"geometry":{"type":"Point","coordinates":[115.2403754,-8.6721642]}},{"type":"Feature","id":"node/9052157487","properties":{"timestamp":"2026-09-29T06:27:44Z","version":3,"changeset":189710733,"user":"GrabID_Lydya","uid":23752865,"access":"private","barrier":"gate","motorcar":"no","id":"node/9052157487","_created":false,"_user":"GrabID_Lydya","_timestamp":"2026-09-29T06:27:44Z","_version":3,"_osmId":"node/9052157487"},"geometry":{"type":"Point","coordinates":[115.2597184,-8.6979088]}},{"type":"Feature","id":"node/9209466562","properties":{"timestamp":"2026-09-30T20:39:27Z","version":4,"changeset":189793500,"user":"Baconcrisp","uid":3778777,"access":"private","barrier":"gate","id":"node/9209466562","_created":false,"_user":"Baconcrisp","_timestamp":"2026-09-30T20:39:27Z","_version":4,"_osmId":"node/9209466562"},"geometry":{"type":"Point","coordinates":[115.2542652,-8.6923839]}},{"type":"Feature","id":"node/9209678046","properties":{"timestamp":"2026-09-30T20:39:27Z","version":3,"changeset":189793500,"user":"Baconcrisp","uid":3778777,"access":"private","barrier":"gate","id":"node/9209678046","_created":false,"_user":"Baconcrisp","_timestamp":"2026-09-30T20:39:27Z","_version":3,"_osmId":"node/9209678046"},"geometry":{"type":"Point","coordinates":[115.2505033,-8.6998309]}},{"type":"Feature","id":"node/9391142073","properties":{"timestamp":"2026-09-30T20:39:27Z","version":3,"changeset":189793500,"user":"Baconcrisp","uid":3778777,"access":"private","barrier":"gate","id":"node/9391142073","_created":false,"_user":"Baconcrisp","_timestamp":"2026-09-30T20:39:27Z","_version":3,"_osmId":"node/9391142073"},"geometry":{"type":"Point","coordinates":[115.241342,-8.7009663]}},{"type":"Feature","id":"node/9430043123","properties":{"timestamp":"2026-09-30T20:39:27Z","version":2,"changeset":189793500,"user":"Baconcrisp","uid":3778777,"access":"private","barrier":"swing_gate","id":"node/9430043123","_created":false,"_user":"Baconcrisp","_timestamp":"2026-09-30T20:39:27Z","_version":2,"_osmId":"node/9430043123"},"geometry":{"type":"Point","coordinates":[115.2440415,-8.6853705]}},{"type":"Feature","id":"node/9432547689","properties":{"timestamp":"2026-09-30T20:39:27Z","version":2,"changeset":189793500,"user":"Baconcrisp","uid":3778777,"access":"private","barrier":"gate","id":"node/9432547689","_created":false,"_user":"Baconcrisp","_timestamp":"2026-09-30T20:39:27Z","_version":2,"_osmId":"node/9432547689"},"geometry":{"type":"Point","coordinates":[115.2412203,-8.6842885]}},{"type":"Feature","id":"node/9774730209","properties":{"timestamp":"2026-09-30T20:39:27Z","version":2,"changeset":189793500,"user":"Baconcrisp","uid":3778777,"access":"private","barrier":"gate","id":"node/9774730209","_created":false,"_user":"Baconcrisp","_timestamp":"2026-09-30T20:39:27Z","_version":2,"_osmId":"node/9774730209"},"geometry":{"type":"Point","coordinates":[115.2656847,-8.6937315]}},{"type":"Feature","id":"node/13981124183","properties":{"timestamp":"2026-09-30T20:48:23Z","version":2,"changeset":189793765,"user":"Baconcrisp","uid":3778777,"access":"no","barrier":"gate","id":"node/13981124183","_created":false,"_user":"Baconcrisp","_timestamp":"2026-09-30T20:48:23Z","_version":2,"_osmId":"node/13981124183"},"geometry":{"type":"Point","coordinates":[115.2437132,-8.7068263]}},{"type":"Feature","id":"node/14062302953","properties":{"timestamp":"2026-10-03T23:26:59Z","version":2,"changeset":189955093,"user":"FajrAl","uid":2649988,"name":"Villa Legong","phone":"+62 821 0807 28500","tourism":"guest_house","id":"node/14062302953","_created":false,"_user":"FajrAl","_timestamp":"2026-10-03T23:26:59Z","_version":2,"_osmId":"node/14062302953"},"geometry":{"type":"Point","coordinates":[115.2603357,-8.7043015]}}]}